     2.100          NAVIGATION                              RINEX VERSION / TYPE
fic2rin                                 09/18/2011 00:11:21 PGM / RUN BY / DATE
                                                            END OF HEADER
27 11  9 17  6  0  0.0  .306048430502D-03  .386535248253D-11  .000000000000D+00
     .440000000000D+02 -.849062500000D+02  .393302096897D-08  .242198652880D+01
    -.416487455368D-05  .216256385902D-01  .800192356110D-05  .515363210487D+04
     .540000000000D+06  .340864062309D-06  .222136901076D+00 -.558793544769D-08
     .981788437738D+00  .228406250000D+03 -.120431203049D+01 -.752531345951D-08
    -.453590322429D-09  .100000000000D+01  .165300000000D+04  .000000000000D+00
     .340000000000D+01  .630000000000D+02 -.419095158577D-08  .440000000000D+02
     .532806000000D+06  .400000000000D+01
28 11  9 17  6  0  0.0  .681458041072D-04  .306954461848D-11  .000000000000D+00
     .450000000000D+02  .106562500000D+02  .396766526918D-08 -.276409018642D+01
     .534579157829D-06  .171731159789D-01  .838749110699D-05  .515370245171D+04
     .540000000000D+06  .106170773506D-06  .135600731213D+01 -.726431608200D-07
     .975590273274D+00  .223593750000D+03 -.188044021826D+01 -.743923844557D-08
     .426089176896D-09  .100000000000D+01  .165300000000D+04  .000000000000D+00
     .240000000000D+01  .000000000000D+00 -.102445483208D-07  .450000000000D+02
     .532806000000D+06  .400000000000D+01
29 11  9 17  6  0  0.0  .240488909185D-03  .318323145621D-11  .000000000000D+00
     .720000000000D+02 -.270000000000D+02  .466197990446D-08 -.667065623858D+00
    -.133551657200D-05  .223105063196D-02  .574253499508D-05  .515372027588D+04
     .540000000000D+06 -.949949026108D-07  .239982094119D+01  .465661287308D-07
     .962150335161D+00  .270187500000D+03 -.116341048385D+01 -.811533803640D-08
    -.928610108910D-11  .100000000000D+01  .165300000000D+04  .000000000000D+00
     .240000000000D+01  .000000000000D+00 -.931322574615D-08  .720000000000D+02
     .532806000000D+06  .400000000000D+01
30 11  9 17  6  0  0.0  .843848101795D-04 -.591171556152D-11  .000000000000D+00
     .760000000000D+02 -.440625000000D+01  .433232331580D-08 -.260517442390D+01
    -.100582838058D-06  .117504339432D-01  .895932316780D-05  .515543773842D+04
     .540000000000D+06  .137835741043D-06  .121113275583D+01  .447034835815D-07
     .956487316370D+00  .203593750000D+03  .157624752090D+01 -.772032158238D-08
     .343942898031D-09  .100000000000D+01  .165300000000D+04  .000000000000D+00
     .485000000000D+01  .000000000000D+00 -.419095158577D-08  .760000000000D+02
     .532806000000D+06  .400000000000D+01
31 11  9 17  6  0  0.0  .142510514706D-03  .545696821064D-11  .000000000000D+00
     .100000000000D+03 -.646875000000D+02  .398409452496D-08  .386325094962D-01
    -.341050326824D-05  .766001490410D-02  .858306884766D-05  .515373819733D+04
     .540000000000D+06 -.745058059692D-08  .277691449203D+00 -.135973095894D-06
     .980507035608D+00  .228718750000D+03 -.953180019934D+00 -.791032949697D-08
    -.234295473633D-09  .100000000000D+01  .165300000000D+04  .000000000000D+00
     .240000000000D+01  .000000000000D+00 -.130385160446D-07  .100000000000D+03
     .532806000000D+06  .400000000000D+01
32 11  9 17  6  0  0.0 -.330104026943D-03 -.659383658785D-11  .000000000000D+00
     .940000000000D+02  .786875000000D+02  .492306220816D-08  .765735021514D+00
     .405125319958D-05  .121890197042D-01  .678934156895D-05  .515357289124D+04
     .540000000000D+06  .139698386192D-06 -.174220820974D+01 -.234693288803D-06
     .953626063656D+00  .246625000000D+03 -.734457351680D+00 -.835177645644D-08
     .261439461432D-09  .100000000000D+01  .165300000000D+04  .000000000000D+00
     .240000000000D+01  .000000000000D+00 -.279396772385D-08  .940000000000D+02
     .532806000000D+06  .400000000000D+01
 6 11  9 17  5 59 44.0 -.689732842147D-04  .898126018001D-11  .000000000000D+00
     .490000000000D+02 -.148125000000D+02  .522343186262D-08 -.259248993522D+01
    -.601634383202D-06  .667912745848D-02  .519119203091D-05  .515370228767D+04
     .539984000000D+06 -.335276126862D-07  .230481641665D+01  .968575477600D-07
     .936451923279D+00  .265562500000D+03 -.685162809953D+00 -.837749181330D-08
     .596453416107D-10  .100000000000D+01  .165300000000D+04  .000000000000D+00
     .240000000000D+01  .000000000000D+00 -.465661287308D-08  .490000000000D+02
     .532836000000D+06  .400000000000D+01
13 11  9 17  5 59 44.0  .251135323197D-03 -.181898940355D-11  .000000000000D+00
     .000000000000D+00 -.125937500000D+02  .420303221602D-08  .248900197946D+01
    -.527128577232D-06  .462021038402D-02  .332668423653D-05  .515377839279D+04
     .539984000000D+06  .154599547386D-06 -.697042291386D+00 -.782310962677D-07
     .988450604707D+00  .326406250000D+03  .195392737274D+01 -.803569186168D-08
    -.225009372544D-09  .100000000000D+01  .165300000000D+04  .000000000000D+00
     .240000000000D+01  .000000000000D+00 -.111758708954D-07  .000000000000D+00
     .533796000000D+06  .400000000000D+01
25 11  9 17  5 59 44.0  .190977007151D-04  .181898940355D-11  .000000000000D+00
     .200000000000D+02 -.231250000000D+01  .427267797419D-08 -.172381767931D+01
    -.100582838058D-06  .104276684579D-02  .879541039467D-05  .515359788322D+04
     .539984000000D+06  .540167093277D-07  .129982381749D+01 -.167638063431D-07
     .965161387760D+00  .215250000000D+03  .998830020182D+00 -.788497129785D-08
     .312155859687D-09  .100000000000D+01  .165300000000D+04  .000000000000D+00
     .240000000000D+01  .000000000000D+00  .558793544769D-08  .200000000000D+02
     .537036000000D+06  .400000000000D+01
13 11  9 17  7 59 44.0  .251121819019D-03 -.181898940355D-11  .000000000000D+00
     .130000000000D+02 -.800000000000D+01  .423946230491D-08 -.274410065435D+01
    -.320374965668D-06  .462073949166D-02  .344961881638D-05  .515377744675D+04
     .547184000000D+06  .204890966415D-07 -.697100958790D+00  .113621354103D-06
     .988449839601D+00  .328031250000D+03  .195396007773D+01 -.798854704076D-08
    -.410731394325D-10  .100000000000D+01  .165300000000D+04  .000000000000D+00
     .240000000000D+01  .000000000000D+00 -.111758708954D-07  .130000000000D+02
     .540006000000D+06  .400000000000D+01
25 11  9 17  7 59 44.0  .191102735698D-04  .181898940355D-11  .000000000000D+00
     .210000000000D+02  .140625000000D+01  .443125600817D-08 -.674359123364D+00
    -.484287738800D-07  .104256160557D-02  .874511897564D-05  .515359634209D+04
     .547184000000D+06 -.149011611938D-07  .129976683829D+01  .484287738800D-07
     .965163140336D+00  .210343750000D+03  .999598044859D+00 -.797854662421D-08
     .292869342041D-09  .100000000000D+01  .165300000000D+04  .000000000000D+00
     .240000000000D+01  .000000000000D+00  .558793544769D-08  .210000000000D+02
     .540006000000D+06  .400000000000D+01
 1 11  9 17  8  0  0.0 -.286055728793D-05 -.159161572810D-11  .000000000000D+00
     .160000000000D+02 -.587500000000D+01  .435446709532D-08  .407726533161D-01
    -.402331352234D-06  .301780411974D-03  .993534922600D-05  .515367062759D+04
     .547200000000D+06 -.316649675369D-07 -.288521164469D+01 -.502914190292D-07
     .960724123159D+00  .186625000000D+03  .177615614979D+01 -.788139972051D-08
    -.249653256203D-09  .100000000000D+01  .165300000000D+04  .000000000000D+00
     .240000000000D+01  .630000000000D+02  .791624188423D-08  .160000000000D+02
     .540006000000D+06  .400000000000D+01
 2 11  9 17  8  0  0.0  .356486532837D-03  .193267624127D-11  .000000000000D+00
     .103000000000D+03 -.540625000000D+01  .473876881731D-08  .256416030572D+01
    -.173225998878D-06  .104991678381D-01  .993721187115D-05  .515357433891D+04
     .547200000000D+06 -.214204192162D-06 -.289346942665D+01 -.372529029846D-08
     .939321619956D+00  .172937500000D+03 -.293285382191D+01 -.798176104381D-08
    -.215366113720D-09  .100000000000D+01  .165300000000D+04  .000000000000D+00
     .340000000000D+01  .000000000000D+00 -.172294676304D-07  .103000000000D+03
     .540006000000D+06  .400000000000D+01
 3 11  9 17  8  0  0.0  .769387930632D-03  .511590769747D-11  .000000000000D+00
     .470000000000D+02 -.184375000000D+02  .531986445085D-08  .275574731237D+01
    -.101886689663D-05  .147986327065D-01  .504031777382D-05  .515366999435D+04
     .547200000000D+06  .113621354103D-06  .223017133618D+01 -.128522515297D-06
     .929351442646D+00  .262718750000D+03  .113444233156D+01 -.823820029697D-08
     .378587198248D-10  .100000000000D+01  .165300000000D+04  .000000000000D+00
     .340000000000D+01  .000000000000D+00 -.465661287308D-08  .470000000000D+02
     .540006000000D+06  .400000000000D+01
 4 11  9 17  8  0  0.0  .233738683164D-03  .112549969344D-10  .000000000000D+00
     .117000000000D+03 -.128125000000D+01  .486448833975D-08 -.479930686537D+00
     .160187482834D-06  .979507761076D-02  .954419374466D-05  .515370854759D+04
     .547200000000D+06  .204890966415D-07 -.287625966275D+01  .141561031342D-06
     .938401154826D+00  .183000000000D+03  .765091271728D+00 -.829677416538D-08
    -.183221917643D-09  .100000000000D+01  .165300000000D+04  .000000000000D+00
     .240000000000D+01  .000000000000D+00 -.651925802231D-08  .117000000000D+03
     .540006000000D+06  .400000000000D+01
 5 11  9 17  8  0  0.0 -.219367444515D-03 -.522959453519D-11  .000000000000D+00
     .360000000000D+02  .901562500000D+02  .472483966568D-08 -.164885240118D+01
     .437907874584D-05  .240658747498D-02  .708177685738D-05  .515375572395D+04
     .547200000000D+06 -.149011611938D-07 -.183131265400D+01 -.391155481339D-07
     .952960332063D+00  .238406250000D+03  .150561613758D+00 -.812783855710D-08
     .266439669710D-09  .100000000000D+01  .165300000000D+04  .000000000000D+00
     .240000000000D+01  .000000000000D+00 -.102445483208D-07  .360000000000D+02
     .540006000000D+06  .400000000000D+01
